     3.02           N: GNSS NAV DATA    E: GALILEO NAV DATA RINEX VERSION / TYPE
NetR9 5.01          Receiver Operator   20250313 085054 UTC PGM / RUN BY / DATE
GAL     .1645D+03   .4844D+00  -.3143D-02   .0000D+00       IONOSPHERIC CORR
GAUT   .0000000000D+00  .000000000D+00 345600 2357          TIME SYSTEM CORR
    18    18  2441     7                                    LEAP SECONDS
                                                            END OF HEADER
E26 2025 03 13 08 20 00 -.997448223643D-04  .109707798401D-10  .000000000000D+00
      .118000000000D+03  .757812500000D+02  .224187909755D-08  .284744844062D+01
      .349432229996D-05  .277416547760D-03  .151377171278D-04  .544061536980D+04
      .375600000000D+06  .521540641785D-07 -.301448801983D+01 -.745058059692D-08
      .993516575908D+00  .276250000000D+02 -.822102952094D+00 -.513057085173D-08
      .946467995620D-10  .516000000000D+03  .235700000000D+04
      .107000000000D+03  .000000000000D+00 -.628642737865D-08 -.628642737865D-08
      .376414000000D+06
E33 2025 03 13 08 40 00  .161472125910D-04 -.994759830064D-13  .000000000000D+00
      .120000000000D+03  .560625000000D+02  .206615749232D-08  .242619276938D+01
      .263005495071D-05  .187659868971D-03  .152532011271D-04  .544062457657D+04
      .376800000000D+06  .130385160446D-07 -.301326216032D+01 -.596046447754D-07
      .100022298006D+01  .306875000000D+02 -.100388764982D+01 -.504163857591D-08
      .653598653579D-10  .516000000000D+03  .235700000000D+04
      .107000000000D+03  .000000000000D+00 -.605359673500D-08 -.582076609135D-08
      .377494000000D+06
E23 2025 03 13 08 40 00  .509503297508D-05 -.781597009336D-12  .000000000000D+00
      .120000000000D+03  .793437500000D+02  .356336271407D-08  .164132985113D+01
      .374577939510D-05  .380595796742D-03  .402331352234D-05  .544060799789D+04
      .376800000000D+06  .130385160446D-07  .117092724952D+01 -.875443220139D-07
      .965566623383D+00  .252656250000D+03  .185313219273D+01 -.595417658678D-08
      .360729311538D-09  .516000000000D+03  .235700000000D+04
      .107000000000D+03  .000000000000D+00  .698491930962D-09  .232830643654D-08
      .377494000000D+06
E29 2025 03 13 08 40 00 -.781544367783D-04 -.324007487507D-11  .000000000000D+00
      .120000000000D+03 -.156312500000D+03  .357479176157D-08  .271187994217D+01
     -.726431608200D-05  .140675227158D-03  .489130616188D-05  .544060586166D+04
      .376800000000D+06  .316649675369D-07 -.922854613216D+00  .167638063431D-07
      .957024853915D+00  .237468750000D+03 -.262734044307D+01 -.599917846129D-08
     -.480019994760D-09  .516000000000D+03  .235700000000D+04
      .107000000000D+03  .000000000000D+00 -.605359673500D-08 -.512227416039D-08
      .377494000000D+06
E16 2025 03 13 08 40 00 -.259813969024D-04 -.224531504500D-11  .000000000000D+00
      .120000000000D+03  .761875000000D+02  .346835875678D-08 -.939417730748D+00
      .353157520294D-05  .308053102344D-03  .414066016674D-05  .544061009979D+04
      .376800000000D+06 -.316649675369D-07  .117082674266D+01  .577419996262D-07
      .965588774888D+00  .253687500000D+03  .246942976525D+01 -.588595945955D-08
      .380730144653D-09  .516000000000D+03  .235700000000D+04
      .107000000000D+03  .000000000000D+00 -.582076609135D-08 -.395812094212D-08
      .377494000000D+06
E33 2025 03 13 08 40 00  .161472125910D-04 -.994759830064D-13  .000000000000D+00
      .120000000000D+03  .560625000000D+02  .206615749232D-08  .242619276938D+01
      .263005495071D-05  .187659868971D-03  .152532011271D-04  .544062457657D+04
      .376800000000D+06  .130385160446D-07 -.301326216032D+01 -.596046447754D-07
      .100022298006D+01  .306875000000D+02 -.100388764982D+01 -.504163857591D-08
      .653598653579D-10  .513000000000D+03  .235700000000D+04
      .107000000000D+03  .000000000000D+00 -.605359673500D-08 -.582076609135D-08
      .377485000000D+06
E16 2025 03 13 08 40 00 -.259813969024D-04 -.224531504500D-11  .000000000000D+00
      .120000000000D+03  .761875000000D+02  .346835875678D-08 -.939417730748D+00
      .353157520294D-05  .308053102344D-03  .414066016674D-05  .544061009979D+04
      .376800000000D+06 -.316649675369D-07  .117082674266D+01  .577419996262D-07
      .965588774888D+00  .253687500000D+03  .246942976525D+01 -.588595945955D-08
      .380730144653D-09  .513000000000D+03  .235700000000D+04
      .107000000000D+03  .000000000000D+00 -.582076609135D-08 -.395812094212D-08
      .377485000000D+06
E29 2025 03 13 08 40 00 -.781544367783D-04 -.324007487507D-11  .000000000000D+00
      .120000000000D+03 -.156312500000D+03  .357479176157D-08  .271187994217D+01
     -.726431608200D-05  .140675227158D-03  .489130616188D-05  .544060586166D+04
      .376800000000D+06  .316649675369D-07 -.922854613216D+00  .167638063431D-07
      .957024853915D+00  .237468750000D+03 -.262734044307D+01 -.599917846129D-08
     -.480019994760D-09  .513000000000D+03  .235700000000D+04
      .107000000000D+03  .000000000000D+00 -.605359673500D-08 -.512227416039D-08
      .377485000000D+06
E23 2025 03 13 08 40 00  .509503297508D-05 -.781597009336D-12  .000000000000D+00
      .120000000000D+03  .793437500000D+02  .356336271407D-08  .164132985113D+01
      .374577939510D-05  .380595796742D-03  .402331352234D-05  .544060799789D+04
      .376800000000D+06  .130385160446D-07  .117092724952D+01 -.875443220139D-07
      .965566623383D+00  .252656250000D+03  .185313219273D+01 -.595417658678D-08
      .360729311538D-09  .513000000000D+03  .235700000000D+04
      .107000000000D+03  .000000000000D+00  .698491930962D-09  .232830643654D-08
      .377485000000D+06
E 4 2025 03 13 08 00 00 -.180183793418D-03 -.973443547991D-11  .000000000000D+00
      .116000000000D+03 -.137781250000D+03  .343442877203D-08 -.625931695608D+00
     -.644661486149D-05  .350537477061D-03  .434741377831D-05  .544060382271D+04
      .374400000000D+06  .260770320892D-07 -.924895575579D+00 -.521540641785D-07
      .963702829177D+00  .249437500000D+03 -.115671247392D+01 -.590596029267D-08
     -.425732019162D-09  .258000000000D+03  .235700000000D+04
      .107000000000D+03  .000000000000D+00 -.512227416039D-08  .000000000000D+00
      .377480000000D+06
E16 2025 03 13 08 40 00 -.259834923781D-04 -.224531504500D-11  .000000000000D+00
      .120000000000D+03  .761875000000D+02  .346835875678D-08 -.939417730748D+00
      .353157520294D-05  .308053102344D-03  .414066016674D-05  .544061009979D+04
      .376800000000D+06 -.316649675369D-07  .117082674266D+01  .577419996262D-07
      .965588774888D+00  .253687500000D+03  .246942976525D+01 -.588595945955D-08
      .380730144653D-09  .258000000000D+03  .235700000000D+04
      .107000000000D+03  .000000000000D+00 -.582076609135D-08  .000000000000D+00
      .377530000000D+06
E29 2025 03 13 08 40 00 -.781557173468D-04 -.324007487507D-11  .000000000000D+00
      .120000000000D+03 -.156312500000D+03  .357479176157D-08  .271187994217D+01
     -.726431608200D-05  .140675227158D-03  .489130616188D-05  .544060586166D+04
      .376800000000D+06  .316649675369D-07 -.922854613216D+00  .167638063431D-07
      .957024853915D+00  .237468750000D+03 -.262734044307D+01 -.599917846129D-08
     -.480019994760D-09  .258000000000D+03  .235700000000D+04
      .107000000000D+03  .000000000000D+00 -.605359673500D-08  .000000000000D+00
      .377530000000D+06
E23 2025 03 13 08 40 00  .509299570695D-05 -.781597009336D-12  .000000000000D+00
      .120000000000D+03  .793437500000D+02  .356336271407D-08  .164132985113D+01
      .374577939510D-05  .380595796742D-03  .402331352234D-05  .544060799789D+04
      .376800000000D+06  .130385160446D-07  .117092724952D+01 -.875443220139D-07
      .965566623383D+00  .252656250000D+03  .185313219273D+01 -.595417658678D-08
      .360729311538D-09  .258000000000D+03  .235700000000D+04
      .107000000000D+03  .000000000000D+00  .698491930962D-09  .000000000000D+00
      .377530000000D+06
E33 2025 03 13 08 40 00  .161469797604D-04 -.994759830064D-13  .000000000000D+00
      .120000000000D+03  .560625000000D+02  .206615749232D-08  .242619276938D+01
      .263005495071D-05  .187659868971D-03  .152532011271D-04  .544062457657D+04
      .376800000000D+06  .130385160446D-07 -.301326216032D+01 -.596046447754D-07
      .100022298006D+01  .306875000000D+02 -.100388764982D+01 -.504163857591D-08
      .653598653579D-10  .258000000000D+03  .235700000000D+04
      .107000000000D+03  .000000000000D+00 -.605359673500D-08  .000000000000D+00
      .377530000000D+06
E19 2025 03 13 08 40 00  .150113058044D-02  .520827825312D-10  .000000000000D+00
      .120000000000D+03 -.150093750000D+03  .336085427879D-08  .718099335263D+00
     -.691786408424D-05  .358071876690D-03  .463426113129D-05  .544062424278D+04
      .376800000000D+06  .447034835815D-07 -.918811751329D+00  .931322574615D-08
      .969180829792D+00  .248312500000D+03 -.133948359976D+01 -.590346018853D-08
     -.472162524607D-09  .516000000000D+03  .235700000000D+04
      .107000000000D+03  .000000000000D+00 -.675208866596D-08 -.605359673500D-08
      .377554000000D+06
E19 2025 03 13 08 40 00  .150113058044D-02  .520827825312D-10  .000000000000D+00
      .120000000000D+03 -.150093750000D+03  .336085427879D-08  .718099335263D+00
     -.691786408424D-05  .358071876690D-03  .463426113129D-05  .544062424278D+04
      .376800000000D+06  .447034835815D-07 -.918811751329D+00  .931322574615D-08
      .969180829792D+00  .248312500000D+03 -.133948359976D+01 -.590346018853D-08
     -.472162524607D-09  .513000000000D+03  .235700000000D+04
      .107000000000D+03  .000000000000D+00 -.675208866596D-08 -.605359673500D-08
      .377545000000D+06
